[{"OBJECT_NAME":"STARLINK-34325","OBJECT_ID":"2025-120G","EPOCH":"2026-03-09T10:26:18.548160","MEAN_MOTION":15.30188654,"ECCENTRICITY":0.00011022,"INCLINATION":53.1572,"RA_OF_ASC_NODE":118.1242,"ARG_OF_PERICENTER":91.8353,"MEAN_ANOMALY":268.2774,"EPHEMERIS_TYPE":0,"CLASSIFICATION_TYPE":"U","NORAD_CAT_ID":64262,"ELEMENT_SET_NO":999,"REV_AT_EPOCH":4387,"BSTAR":0.00078371559,"MEAN_MOTION_DOT":0.00022916,"MEAN_MOTION_DDOT":0},{"OBJECT_NAME":"CZ-4C R\/B","OBJECT_ID":"2015-069B","EPOCH":"2026-03-09T18:13:41.887776","MEAN_MOTION":15.30824061,"ECCENTRICITY":0.00587215,"INCLINATION":97.486,"RA_OF_ASC_NODE":137.7913,"ARG_OF_PERICENTER":156.3643,"MEAN_ANOMALY":204.0316,"EPHEMERIS_TYPE":0,"CLASSIFICATION_TYPE":"U","NORAD_CAT_ID":41039,"ELEMENT_SET_NO":999,"REV_AT_EPOCH":56689,"BSTAR":0.0003480254,"MEAN_MOTION_DOT":0.00010856,"MEAN_MOTION_DDOT":0}]
